LEGION 1                
1 59625U 24081A   26204.84083262  .00003695  00000+0  19091-3 0  9994
2 59625  97.5003 282.3092 0008022 233.7603 126.2889 15.16886575123098
LEGION 2                
1 59626U 24081B   26204.80537278  .00003468  00000+0  17938-3 0  9998
2 59626  97.5004 282.3707 0010933 200.9700 159.1086 15.16867411123093
LEGION 3                
1 60452U 24146A   26204.83879169  .00003659  00000+0  20243-3 0  9995
2 60452  45.0000 194.0563 0007248  22.6713 337.4484 15.15694343107583
LEGION 4                
1 60453U 24146B   26204.64062319  .00003831  00000+0  21101-3 0  9992
2 60453  45.0020 286.9859 0009637 165.3702 194.7457 15.15728416106405
LEGION 5                
1 62900U 25025A   26204.77240229  .00003558  00000+0  19690-3 0  9996
2 62900  45.0013 105.2363 0007462 333.6466  26.4032 15.15745851 80043
LEGION 6                
1 62901U 25025B   26204.83749753  .00003542  00000+0  19605-3 0  9999
2 62901  45.0024  14.0349 0010411 320.7784  39.2339 15.15737172 81191
